start=new Date('2023-05-30T00:00:00.000Z').valueOf();
sats=[{"TIME_SYSTEM":"UTC","MEAN_ELEMENT_THEORY":"SGP4","SITE":"AFETR","PERIOD":"95.593","REF_FRAME":"TEME","RCS_SIZE":"LARGE","DECAY_DATE":null,"OBJECT_ID":"2020-019AW","CLASSIFICATION_TYPE":"U","CENTER_NAME":"EARTH","RA_OF_ASC_NODE":"12.2976","ELEMENT_SET_NO":"999","NORAD_CAT_ID":"45404","MEAN_ANOMALY":"292.4611","PERIAPSIS":"546.914","TLE_LINE1":"1 45404U 20019AW  23149.87465205  .00006225  00000-0  43650-3 0  9991","COUNTRY_CODE":"US","MEAN_MOTION":"15.06392778","GP_ID":"232776660","ARG_OF_PERICENTER":"67.6427","SEMIMAJOR_AXIS":"6925.371","EPOCH":"2023-05-29T20:59:29.937120","ECCENTRICITY":"0.00004650","BSTAR":"0.00043650000000","INCLINATION":"53.0553","OBJECT_TYPE":"PAYLOAD","EPHEMERIS_TYPE":"0","LAUNCH_DATE":"2020-03-18","FILE":"3920354","TLE_LINE2":"2 45404  53.0553  12.2976 0000465  67.6427 292.4611 15.06392778176900","MEAN_MOTION_DOT":"0.00006225","APOAPSIS":"547.558","REV_AT_EPOCH":"17690","MEAN_MOTION_DDOT":"0.0000000000000","OBJECT_NAME":"STARLINK-1260"},{"FILE":"3920354","LAUNCH_DATE":"2020-03-18","EPHEMERIS_TYPE":"0","OBJECT_TYPE":"PAYLOAD","INCLINATION":"53.0561","OBJECT_NAME":"STARLINK-1263","MEAN_MOTION_DDOT":"0.0000000000000","APOAPSIS":"547.865","REV_AT_EPOCH":"17690","MEAN_MOTION_DOT":"0.00000685","TLE_LINE2":"2 45405  53.0561  12.3653 0000911  79.3084 280.8008 15.06393424176908","EPOCH":"2023-05-29T20:38:15.873216","SEMIMAJOR_AXIS":"6925.369","ARG_OF_PERICENTER":"79.3084","GP_ID":"232776912","MEAN_MOTION":"15.06393424","BSTAR":"0.00006489100000","ECCENTRICITY":"0.00009110","PERIAPSIS":"546.603","MEAN_ANOMALY":"280.8008","NORAD_CAT_ID":"45405","ELEMENT_SET_NO":"999","TLE_LINE1":"1 45405U 20019AX  23149.85990594  .00000685  00000-0  64891-4 0  9999","COUNTRY_CODE":"US","RCS_SIZE":"LARGE","REF_FRAME":"TEME","PERIOD":"95.593","SITE":"AFETR","MEAN_ELEMENT_THEORY":"SGP4","TIME_SYSTEM":"UTC","RA_OF_ASC_NODE":"12.3653","CLASSIFICATION_TYPE":"U","CENTER_NAME":"EARTH","OBJECT_ID":"2020-019AX","DECAY_DATE":null},{"BSTAR":"0.00039958000000","ECCENTRICITY":"0.00007390","GP_ID":"232777151","MEAN_MOTION":"15.06393433","EPOCH":"2023-05-29T20:48:53.027424","SEMIMAJOR_AXIS":"6925.369","ARG_OF_PERICENTER":"42.8860","APOAPSIS":"547.745","MEAN_MOTION_DDOT":"0.0000000000000","REV_AT_EPOCH":"17690","MEAN_MOTION_DOT":"0.00005674","TLE_LINE2":"2 45406  53.0547  12.3332 0000739  42.8860 317.2187 15.06393433176905","OBJECT_NAME":"STARLINK-1265","OBJECT_TYPE":"PAYLOAD","INCLINATION":"53.0547","FILE":"3920354","LAUNCH_DATE":"2020-03-18","EPHEMERIS_TYPE":"0","OBJECT_ID":"2020-019AY","DECAY_DATE":null,"RA_OF_ASC_NODE":"12.3332","CLASSIFICATION_TYPE":"U","CENTER_NAME":"EARTH","REF_FRAME":"TEME","PERIOD":"95.593","SITE":"AFETR","MEAN_ELEMENT_THEORY":"SGP4","TIME_SYSTEM":"UTC","RCS_SIZE":"LARGE","COUNTRY_CODE":"US","TLE_LINE1":"1 45406U 20019AY  23149.86728041  .00005674  00000-0  39958-3 0  9995","NORAD_CAT_ID":"45406","ELEMENT_SET_NO":"999","PERIAPSIS":"546.722","MEAN_ANOMALY":"317.2187"},{"EPOCH":"2023-05-29T21:08:45.221280","ARG_OF_PERICENTER":"88.7607","SEMIMAJOR_AXIS":"6925.339","GP_ID":"232776410","MEAN_MOTION":"15.06403200","BSTAR":"0.00079080000000","ECCENTRICITY":"0.00010420","FILE":"3920354","LAUNCH_DATE":"2020-03-18","EPHEMERIS_TYPE":"0","INCLINATION":"53.0542","OBJECT_TYPE":"PAYLOAD","OBJECT_NAME":"STARLINK-1275","MEAN_MOTION_DDOT":"0.0000000000000","APOAPSIS":"547.925","REV_AT_EPOCH":"17690","MEAN_MOTION_DOT":"0.00011518","TLE_LINE2":"2 45407  53.0542  12.2696 0001042  88.7607 271.3502 15.06403200176904","RCS_SIZE":"LARGE","REF_FRAME":"TEME","PERIOD":"95.592","SITE":"AFETR","TIME_SYSTEM":"UTC","MEAN_ELEMENT_THEORY":"SGP4","RA_OF_ASC_NODE":"12.2696","CLASSIFICATION_TYPE":"U","CENTER_NAME":"EARTH","OBJECT_ID":"2020-019AZ","DECAY_DATE":null,"PERIAPSIS":"546.482","MEAN_ANOMALY":"271.3502","NORAD_CAT_ID":"45407","ELEMENT_SET_NO":"999","TLE_LINE1":"1 45407U 20019AZ  23149.88107895  .00011518  00000-0  79080-3 0  9990","COUNTRY_CODE":"US"},{"EPOCH":"2023-05-29T23:02:54.651264","SEMIMAJOR_AXIS":"6925.366","ARG_OF_PERICENTER":"78.6203","MEAN_MOTION":"15.06394305","GP_ID":"232776161","BSTAR":"0.00060546000000","ECCENTRICITY":"0.00011480","FILE":"3920354","EPHEMERIS_TYPE":"0","LAUNCH_DATE":"2020-03-18","OBJECT_TYPE":"PAYLOAD","INCLINATION":"53.0551","OBJECT_NAME":"STARLINK-1278","APOAPSIS":"548.026","MEAN_MOTION_DDOT":"0.0000000000000","REV_AT_EPOCH":"17650","TLE_LINE2":"2 45408  53.0551  41.9111 0001148  78.6203 281.4915 15.06394305176504","MEAN_MOTION_DOT":"0.00008747","RCS_SIZE":"LARGE","PERIOD":"95.593","REF_FRAME":"TEME","MEAN_ELEMENT_THEORY":"SGP4","TIME_SYSTEM":"UTC","SITE":"AFETR","RA_OF_ASC_NODE":"41.9111","CENTER_NAME":"EARTH","CLASSIFICATION_TYPE":"U","DECAY_DATE":null,"OBJECT_ID":"2020-019BA","PERIAPSIS":"546.436","MEAN_ANOMALY":"281.4915","NORAD_CAT_ID":"45408","ELEMENT_SET_NO":"999","COUNTRY_CODE":"US","TLE_LINE1":"1 45408U 20019BA  23149.96035476  .00008747  00000-0  60546-3 0  9992"},{"FILE":"3920354","LAUNCH_DATE":"2020-03-18","EPHEMERIS_TYPE":"0","INCLINATION":"53.0552","OBJECT_TYPE":"PAYLOAD","OBJECT_NAME":"STARLINK-1282","APOAPSIS":"547.855","REV_AT_EPOCH":"17691","MEAN_MOTION_DDOT":"0.0000000000000","MEAN_MOTION_DOT":"0.00004741","TLE_LINE2":"2 45409  53.0552  12.2318 0000901  94.5881 265.5211 15.06394165176912","EPOCH":"2023-05-29T21:20:43.492128","SEMIMAJOR_AXIS":"6925.366","ARG_OF_PERICENTER":"94.5881","GP_ID":"232777412","MEAN_MOTION":"15.06394165","BSTAR":"0.00033698000000","ECCENTRICITY":"0.00009010","PERIAPSIS":"546.607","MEAN_ANOMALY":"265.5211","NORAD_CAT_ID":"45409","ELEMENT_SET_NO":"999","TLE_LINE1":"1 45409U 20019BB  23149.88939227  .00004741  00000-0  33698-3 0  9999","COUNTRY_CODE":"US","RCS_SIZE":"LARGE","REF_FRAME":"TEME","PERIOD":"95.593","SITE":"AFETR","TIME_SYSTEM":"UTC","MEAN_ELEMENT_THEORY":"SGP4","RA_OF_ASC_NODE":"12.2318","CLASSIFICATION_TYPE":"U","CENTER_NAME":"EARTH","OBJECT_ID":"2020-019BB","DECAY_DATE":null},{"ELEMENT_SET_NO":"999","NORAD_CAT_ID":"45411","MEAN_ANOMALY":"263.8465","PERIAPSIS":"546.340","TLE_LINE1":"1 45411U 20019BD  23149.90414055  .00003087  00000-0  22609-3 0  9994","COUNTRY_CODE":"US","SITE":"AFETR","MEAN_ELEMENT_THEORY":"SGP4","TIME_SYSTEM":"UTC","REF_FRAME":"TEME","PERIOD":"95.593","RCS_SIZE":"LARGE","OBJECT_ID":"2020-019BD","DECAY_DATE":null,"CLASSIFICATION_TYPE":"U","CENTER_NAME":"EARTH","RA_OF_ASC_NODE":"12.1671","INCLINATION":"53.0555","OBJECT_TYPE":"PAYLOAD","LAUNCH_DATE":"2020-03-18","EPHEMERIS_TYPE":"0","FILE":"3920354","MEAN_MOTION_DOT":"0.00003087","TLE_LINE2":"2 45411  53.0555  12.1671 0001290  96.2671 263.8465 15.06393492176933","APOAPSIS":"548.127","REV_AT_EPOCH":"17693","MEAN_MOTION_DDOT":"0.0000000000000","OBJECT_NAME":"STARLINK-1293","GP_ID":"232777651","MEAN_MOTION":"15.06393492","ARG_OF_PERICENTER":"96.2671","SEMIMAJOR_AXIS":"6925.369","EPOCH":"2023-05-29T21:41:57.743520","ECCENTRICITY":"0.00012900","BSTAR":"0.00022609000000"},{"OBJECT_ID":"2020-019BE","DECAY_DATE":null,"CLASSIFICATION_TYPE":"U","CENTER_NAME":"EARTH","RA_OF_ASC_NODE":"12.3186","SITE":"AFETR","MEAN_ELEMENT_THEORY":"SGP4","TIME_SYSTEM":"UTC","REF_FRAME":"TEME","PERIOD":"95.592","RCS_SIZE":"LARGE","TLE_LINE1":"1 45412U 20019BE  23149.87096799  .00009608  00000-0  66309-3 0  9992","COUNTRY_CODE":"US","ELEMENT_SET_NO":"999","NORAD_CAT_ID":"45412","MEAN_ANOMALY":"301.7105","PERIAPSIS":"546.609","BSTAR":"0.00066309000000","ECCENTRICITY":"0.00008860","GP_ID":"232775911","MEAN_MOTION":"15.06397058","ARG_OF_PERICENTER":"58.3970","SEMIMAJOR_AXIS":"6925.358","EPOCH":"2023-05-29T20:54:11.634336","MEAN_MOTION_DOT":"0.00009608","TLE_LINE2":"2 45412  53.0545  12.3186 0000886  58.3970 301.7105 15.06397058176909","APOAPSIS":"547.836","MEAN_MOTION_DDOT":"0.0000000000000","REV_AT_EPOCH":"17690","OBJECT_NAME":"STARLINK-1296","INCLINATION":"53.0545","OBJECT_TYPE":"PAYLOAD","LAUNCH_DATE":"2020-03-18","EPHEMERIS_TYPE":"0","FILE":"3920354"},{"SEMIMAJOR_AXIS":"6925.365","ARG_OF_PERICENTER":"93.1378","EPOCH":"2023-05-29T21:36:39.201408","GP_ID":"232776661","MEAN_MOTION":"15.06394721","BSTAR":"0.00016444000000","ECCENTRICITY":"0.00013720","LAUNCH_DATE":"2020-03-18","EPHEMERIS_TYPE":"0","FILE":"3920354","OBJECT_TYPE":"PAYLOAD","INCLINATION":"53.0556","OBJECT_NAME":"STARLINK-1298","MEAN_MOTION_DOT":"0.00002168","TLE_LINE2":"2 45413  53.0556  12.1841 0001372  93.1378 266.9768 15.06394721177001","MEAN_MOTION_DDOT":"0.0000000000000","APOAPSIS":"548.180","REV_AT_EPOCH":"17700","RCS_SIZE":"LARGE","SITE":"AFETR","MEAN_ELEMENT_THEORY":"SGP4","TIME_SYSTEM":"UTC","REF_FRAME":"TEME","PERIOD":"95.592","CLASSIFICATION_TYPE":"U","CENTER_NAME":"EARTH","RA_OF_ASC_NODE":"12.1841","OBJECT_ID":"2020-019BF","DECAY_DATE":null,"MEAN_ANOMALY":"266.9768","PERIAPSIS":"546.280","ELEMENT_SET_NO":"999","NORAD_CAT_ID":"45413","COUNTRY_CODE":"US","TLE_LINE1":"1 45413U 20019BF  23149.90045372  .00002168  00000-0  16444-3 0  9997"},{"INCLINATION":"53.0561","OBJECT_TYPE":"PAYLOAD","FILE":"3920354","LAUNCH_DATE":"2020-03-18","EPHEMERIS_TYPE":"0","REV_AT_EPOCH":"17689","APOAPSIS":"548.062","MEAN_MOTION_DDOT":"0.0000000000000","MEAN_MOTION_DOT":"0.00005960","TLE_LINE2":"2 45414  53.0561  12.2461 0001231 101.9919 258.1208 15.06401407176898","OBJECT_NAME":"STARLINK-1309","GP_ID":"232776913","MEAN_MOTION":"15.06401407","EPOCH":"2023-05-29T21:15:25.088256","ARG_OF_PERICENTER":"101.9919","SEMIMAJOR_AXIS":"6925.344","BSTAR":"0.00041867000000","ECCENTRICITY":"0.00012310","NORAD_CAT_ID":"45414","ELEMENT_SET_NO":"999","PERIAPSIS":"546.357","MEAN_ANOMALY":"258.1208","TLE_LINE1":"1 45414U 20019BG  23149.88570704  .00005960  00000-0  41867-3 0  9997","COUNTRY_CODE":"US","REF_FRAME":"TEME","PERIOD":"95.592","SITE":"AFETR","TIME_SYSTEM":"UTC","MEAN_ELEMENT_THEORY":"SGP4","RCS_SIZE":"LARGE","OBJECT_ID":"2020-019BG","DECAY_DATE":null,"RA_OF_ASC_NODE":"12.2461","CLASSIFICATION_TYPE":"U","CENTER_NAME":"EARTH"}];
